{"type": "FeatureCollection", "features": [ {"type": "Feature", "properties": {"norad_id": 31735, "name": "FENGYUN 1C DEB", "group": "fengyun-1c-debris", "lat": 56.01708402136845, "lon": 82.40605267326755, "alt_km": 780.4542998489251, "timestamp": "2025-12-17T23:38:07.137916+00:00", "meta": {"OBJECT_NAME": "FENGYUN 1C DEB", "OBJECT_ID": "1999-025CEJ", "EPOCH": "2025-12-16T02:25:27.533568", "MEAN_MOTION": 14.42553098, "ECCENTRICITY": 0.00588826, "INCLINATION": 98.5801, "RA_OF_ASC_NODE": 93.4541, "ARG_OF_PERICENTER": 274.0925, "MEAN_ANOMALY": 85.3535, "EPHEMERIS_TYPE": 0, "CLASSIFICATION_TYPE": "U", "NORAD_CAT_ID": 31735, "ELEMENT_SET_NO": 999, "REV_AT_EPOCH": 96713, "BSTAR": 0.00031395089, "MEAN_MOTION_DOT": 1.017e-05, "MEAN_MOTION_DDOT": 0}, "tle": {"line1": "1 31735U 99025CEJ 25350.10101312  .00001017  00000+0  31395-3 0  9990", "line2": "2 31735  98.5801  93.4541 0058882 274.0925  85.3535 14.42553098967134"}}, "geometry": {"type": "Point", "coordinates": [82.40605267326755, 56.01708402136845]}}, {"type": "Feature", "properties": {"norad_id": 31736, "name": "FENGYUN 1C DEB", "group": "fengyun-1c-debris", "lat": -75.40054613924171, "lon": 137.847755749551, "alt_km": 845.6330085901409, "timestamp": "2025-12-17T23:38:07.137928+00:00", "meta": {"OBJECT_NAME": "FENGYUN 1C DEB", "OBJECT_ID": "1999-025CEK", "EPOCH": "2025-12-16T17:33:04.382208", "MEAN_MOTION": 14.14186278, "ECCENTRICITY": 0.00111729, "INCLINATION": 98.6781, "RA_OF_ASC_NODE": 352.5289, "ARG_OF_PERICENTER": 228.4354, "MEAN_ANOMALY": 131.5862, "EPHEMERIS_TYPE": 0, "CLASSIFICATION_TYPE": "U", "NORAD_CAT_ID": 31736, "ELEMENT_SET_NO": 999, "REV_AT_EPOCH": 64121, "BSTAR": 0.00015555126, "MEAN_MOTION_DOT": 2.54e-06, "MEAN_MOTION_DDOT": 0}, "tle": {"line1": "1 31736U 99025CEK 25350.73130072  .00000254  00000+0  15555-3 0  9997", "line2": "2 31736  98.6781 352.5289 0011172 228.4354 131.5862 14.14186278641217"}}, "geometry": {"type": "Point", "coordinates": [137.847755749551, -75.40054613924171]}}, {"type": "Feature", "properties": {"norad_id": 31737, "name": "FENGYUN 1C DEB", "group": "fengyun-1c-debris", "lat": 50.51498815426335, "lon": -144.93940944725227, "alt_km": 726.2182922552911, "timestamp": "2025-12-17T23:38:07.137940+00:00", "meta": {"OBJECT_NAME": "FENGYUN 1C DEB", "OBJECT_ID": "1999-025CEL", "EPOCH": "2025-12-17T13:55:57.709056", "MEAN_MOTION": 14.68779249, "ECCENTRICITY": 0.01483515, "INCLINATION": 97.9171, "RA_OF_ASC_NODE": 24.9449, "ARG_OF_PERICENTER": 0.288, "MEAN_ANOMALY": 150.7725, "EPHEMERIS_TYPE": 0, "CLASSIFICATION_TYPE": "U", "NORAD_CAT_ID": 31737, "ELEMENT_SET_NO": 999, "REV_AT_EPOCH": 98270, "BSTAR": 0.00046574375, "MEAN_MOTION_DOT": 3.158e-05, "MEAN_MOTION_DDOT": 0}, "tle": {"line1": "1 31737U 99025CEL 25351.58052904  .00003158  00000+0  46574-3 0  9990", "line2": "2 31737  97.9171  24.9449 0148351   0.2880 150.7725 14.68779249982709"}}, "geometry": {"type": "Point", "coordinates": [-144.93940944725227, 50.51498815426335]}}, {"type": "Feature", "properties": {"norad_id": 31738, "name": "FENGYUN 1C DEB", "group": "fengyun-1c-debris", "lat": 18.107412382019497, "lon": 56.135311044776465, "alt_km": 855.3719484885478, "timestamp": "2025-12-17T23:38:07.137951+00:00", "meta": {"OBJECT_NAME": "FENGYUN 1C DEB", "OBJECT_ID": "1999-025CEM", "EPOCH": "2025-12-16T00:44:19.227840", "MEAN_MOTION": 13.85068402, "ECCENTRICITY": 0.03071982, "INCLINATION": 99.3598, "RA_OF_ASC_NODE": 57.2745, "ARG_OF_PERICENTER": 91.5021, "MEAN_ANOMALY": 272.1342, "EPHEMERIS_TYPE": 0, "CLASSIFICATION_TYPE": "U", "NORAD_CAT_ID": 31738, "ELEMENT_SET_NO": 999, "REV_AT_EPOCH": 62303, "BSTAR": 0.00086045349, "MEAN_MOTION_DOT": 1.365e-05, "MEAN_MOTION_DDOT": 0}, "tle": {"line1": "1 31738U 99025CEM 25350.03077810  .00001365  00000+0  86045-3 0  9998", "line2": "2 31738  99.3598  57.2745 0307198  91.5021 272.1342 13.85068402623035"}}, "geometry": {"type": "Point", "coordinates": [56.135311044776465, 18.107412382019497]}}, {"type": "Feature", "properties": {"norad_id": 31739, "name": "FENGYUN 1C DEB", "group": "fengyun-1c-debris", "lat": -43.83100746740944, "lon": -141.24957686813534, "alt_km": 922.0450245312995, "timestamp": "2025-12-17T23:38:07.137961+00:00", "meta": {"OBJECT_NAME": "FENGYUN 1C DEB", "OBJECT_ID": "1999-025CEN", "EPOCH": "2025-12-16T09:21:55.249056", "MEAN_MOTION": 14.19219377, "ECCENTRICITY": 0.01283392, "INCLINATION": 98.7474, "RA_OF_ASC_NODE": 45.676, "ARG_OF_PERICENTER": 67.8134, "MEAN_ANOMALY": 293.6602, "EPHEMERIS_TYPE": 0, "CLASSIFICATION_TYPE": "U", "NORAD_CAT_ID": 31739, "ELEMENT_SET_NO": 999, "REV_AT_EPOCH": 95538, "BSTAR": 9.0957871e-05, "MEAN_MOTION_DOT": 1.64e-06, "MEAN_MOTION_DDOT": 0}, "tle": {"line1": "1 31739U 99025CEN 25350.39022279  .00000164  00000+0  90958-4 0  9992", "line2": "2 31739  98.7474  45.6760 0128339  67.8134 293.6602 14.19219377955389"}}, "geometry": {"type": "Point", "coordinates": [-141.24957686813534, -43.83100746740944]}}, {"type": "Feature", "properties": {"norad_id": 31740, "name": "FENGYUN 1C DEB", "group": "fengyun-1c-debris", "lat": -69.82086839192496, "lon": -44.01321617303412, "alt_km": 774.8121341476754, "timestamp": "2025-12-17T23:38:07.137971+00:00", "meta": {"OBJECT_NAME": "FENGYUN 1C DEB", "OBJECT_ID": "1999-025CEP", "EPOCH": "2025-12-14T23:34:19.860384", "MEAN_MOTION": 14.42186075, "ECCENTRICITY": 0.00242908, "INCLINATION": 99.8218, "RA_OF_ASC_NODE": 160.6587, "ARG_OF_PERICENTER": 61.8964, "MEAN_ANOMALY": 89.7364, "EPHEMERIS_TYPE": 0, "CLASSIFICATION_TYPE": "U", "NORAD_CAT_ID": 31740, "ELEMENT_SET_NO": 999, "REV_AT_EPOCH": 65107, "BSTAR": 0.00089360339, "MEAN_MOTION_DOT": 2.898e-05, "MEAN_MOTION_DDOT": 0}, "tle": {"line1": "1 31740U 99025CEP 25348.98217431  .00002898  00000+0  89360-3 0  9992", "line2": "2 31740  99.8218 160.6587 0024290  61.8964  89.7364 14.42186075651072"}}, "geometry": {"type": "Point", "coordinates": [-44.01321617303412, -69.82086839192496]}}, {"type": "Feature", "properties": {"norad_id": 31742, "name": "FENGYUN 1C DEB", "group": "fengyun-1c-debris", "lat": -49.80784396685147, "lon": -137.2794437844862, "alt_km": 711.6193867780121, "timestamp": "2025-12-17T23:38:07.137983+00:00", "meta": {"OBJECT_NAME": "FENGYUN 1C DEB", "OBJECT_ID": "1999-025CER", "EPOCH": "2025-12-15T20:09:51.774048", "MEAN_MOTION": 14.39810323, "ECCENTRICITY": 0.00763642, "INCLINATION": 98.9192, "RA_OF_ASC_NODE": 209.7759, "ARG_OF_PERICENTER": 320.3778, "MEAN_ANOMALY": 39.1843, "EPHEMERIS_TYPE": 0, "CLASSIFICATION_TYPE": "U", "NORAD_CAT_ID": 31742, "ELEMENT_SET_NO": 999, "REV_AT_EPOCH": 96694, "BSTAR": 0.00050190865, "MEAN_MOTION_DOT": 1.58e-05, "MEAN_MOTION_DDOT": 0}, "tle": {"line1": "1 31742U 99025CER 25349.84018257  .00001580  00000+0  50191-3 0  9992", "line2": "2 31742  98.9192 209.7759 0076364 320.3778  39.1843 14.39810323966948"}}, "geometry": {"type": "Point", "coordinates": [-137.2794437844862, -49.80784396685147]}}, {"type": "Feature", "properties": {"norad_id": 31743, "name": "FENGYUN 1C DEB", "group": "fengyun-1c-debris", "lat": -51.51849696532035, "lon": 88.48715531999297, "alt_km": 770.7915812087931, "timestamp": "2025-12-17T23:38:07.137995+00:00", "meta": {"OBJECT_NAME": "FENGYUN 1C DEB", "OBJECT_ID": "1999-025CES", "EPOCH": "2025-12-17T01:02:10.055616", "MEAN_MOTION": 14.31327674, "ECCENTRICITY": 0.00372876, "INCLINATION": 99.1426, "RA_OF_ASC_NODE": 279.1851, "ARG_OF_PERICENTER": 206.0396, "MEAN_ANOMALY": 216.8231, "EPHEMERIS_TYPE": 0, "CLASSIFICATION_TYPE": "U", "NORAD_CAT_ID": 31743, "ELEMENT_SET_NO": 999, "REV_AT_EPOCH": 95702, "BSTAR": 0.001108437, "MEAN_MOTION_DOT": 2.91e-05, "MEAN_MOTION_DDOT": 0}, "tle": {"line1": "1 31743U 99025CES 25351.04317194  .00002910  00000+0  11084-2 0  9995", "line2": "2 31743  99.1426 279.1851 0037287 206.0396 216.8231 14.31327674957021"}}, "geometry": {"type": "Point", "coordinates": [88.48715531999297, -51.51849696532035]}}, {"type": "Feature", "properties": {"norad_id": 31744, "name": "FENGYUN 1C DEB", "group": "fengyun-1c-debris", "lat": -79.73846237581711, "lon": -141.6850359040101, "alt_km": 966.1425826616223, "timestamp": "2025-12-17T23:38:07.138006+00:00", "meta": {"OBJECT_NAME": "FENGYUN 1C DEB", "OBJECT_ID": "1999-025CET", "EPOCH": "2025-12-17T13:54:12.794400", "MEAN_MOTION": 14.16604274, "ECCENTRICITY": 0.03151073, "INCLINATION": 99.3037, "RA_OF_ASC_NODE": 102.7793, "ARG_OF_PERICENTER": 30.7507, "MEAN_ANOMALY": 331.1716, "EPHEMERIS_TYPE": 0, "CLASSIFICATION_TYPE": "U", "NORAD_CAT_ID": 31744, "ELEMENT_SET_NO": 999, "REV_AT_EPOCH": 94683, "BSTAR": 0.00098574439, "MEAN_MOTION_DOT": 3.146e-05, "MEAN_MOTION_DDOT": 0}, "tle": {"line1": "1 31744U 99025CET 25351.57931475  .00003146  00000+0  98574-3 0  9990", "line2": "2 31744  99.3037 102.7793 0315107  30.7507 331.1716 14.16604274946837"}}, "geometry": {"type": "Point", "coordinates": [-141.6850359040101, -79.73846237581711]}}, {"type": "Feature", "properties": {"norad_id": 31746, "name": "FENGYUN 1C DEB", "group": "fengyun-1c-debris", "lat": 38.33084989602696, "lon": 108.03371867326966, "alt_km": 649.7707908031034, "timestamp": "2025-12-17T23:38:07.138016+00:00", "meta": {"OBJECT_NAME": "FENGYUN 1C DEB", "OBJECT_ID": "1999-025CEV", "EPOCH": "2025-12-12T06:52:47.387712", "MEAN_MOTION": 14.76733857, "ECCENTRICITY": 0.00233649, "INCLINATION": 98.5885, "RA_OF_ASC_NODE": 108.8357, "ARG_OF_PERICENTER": 208.057, "MEAN_ANOMALY": 151.938, "EPHEMERIS_TYPE": 0, "CLASSIFICATION_TYPE": "U", "NORAD_CAT_ID": 31746, "ELEMENT_SET_NO": 999, "REV_AT_EPOCH": 97021, "BSTAR": 0.0053337592, "MEAN_MOTION_DOT": 0.00037665, "MEAN_MOTION_DDOT": 0}, "tle": {"line1": "1 31746U 99025CEV 25346.28665958  .00037665  00000+0  53338-2 0  9995", "line2": "2 31746  98.5885 108.8357 0023364 208.0570 151.9380 14.76733857970215"}}, "geometry": {"type": "Point", "coordinates": [108.03371867326966, 38.33084989602696]}}]}